0 ARIANE 1 DEB
1 39104U 86019VS  13283.99238870  .00001272  00000-0  39098-3 0   292
2 39104 098.4655 352.2248 0048347 017.6300 342.6850 14.42590346488180
0 ARIANE 1 DEB
1 39104U 86019VS  13293.42520246  .00001535  00000-0  46959-3 0   300
2 39104 098.4690 001.5886 0045515 349.4620 010.7587 14.42622612489549
